"CCSDS_OMM_VERS","COMMENT","CREATION_DATE","ORIGINATOR","OBJECT_NAME","OBJECT_ID","CENTER_NAME","REF_FRAME","TIME_SYSTEM","MEAN_ELEMENT_THEORY","EPOCH","MEAN_MOTION","ECCENTRICITY","INCLINATION","RA_OF_ASC_NODE","ARG_OF_PERICENTER","MEAN_ANOMALY","EPHEMERIS_TYPE","CLASSIFICATION_TYPE","NORAD_CAT_ID","ELEMENT_SET_NO","REV_AT_EPOCH","BSTAR","MEAN_MOTION_DOT","MEAN_MOTION_DDOT","SEMIMAJOR_AXIS","PERIOD","APOAPSIS","PERIAPSIS","OBJECT_TYPE","RCS_SIZE","COUNTRY_CODE","LAUNCH_DATE","SITE","DECAY_DATE","FILE","GP_ID","TLE_LINE0","TLE_LINE1","TLE_LINE2"
"2.0","GENERATED VIA SPACE-TRACK.ORG API","2023-06-23T11:16:13","18 SPCS","CARTOSAT 3","2019-081A","EARTH","TEME","UTC","SGP4","2023-06-23T10:16:47.266176","15.19179571","0.00111590","97.3443","232.2172","3.8374","6.6908","0","U","44804","999","19796","-0.00126920000000","-0.00026688","0.0000000000000","6886.456","94.788","516.005","500.636","PAYLOAD","LARGE","IND","2019-11-27","SRI",null,"3940515","234498584","0 CARTOSAT 3","1 44804U 19081A   23174.42832484 -.00026688  00000-0 -12692-2 0  9995","2 44804  97.3443 232.2172 0011159   3.8374   6.6908 15.19179571197960"
"2.0","GENERATED VIA SPACE-TRACK.ORG API","2023-06-24T06:26:13","18 SPCS","CARTOSAT 3","2019-081A","EARTH","TEME","UTC","SGP4","2023-06-24T02:02:31.151328","15.19205459","0.00112950","97.3451","232.8558","1.2974","358.8288","0","U","44804","999","19806","0.00026520000000","0.00005524","0.0000000000000","6886.378","94.786","516.021","500.464","PAYLOAD","LARGE","IND","2019-11-27","SRI",null,"3941108","234512927","0 CARTOSAT 3","1 44804U 19081A   23175.08508277  .00005524  00000-0  26520-3 0  9998","2 44804  97.3451 232.8558 0011295   1.2974 358.8288 15.19205459198062"
"2.0","GENERATED VIA SPACE-TRACK.ORG API","2023-06-24T14:16:13","18 SPCS","CARTOSAT 3","2019-081A","EARTH","TEME","UTC","SGP4","2023-06-24T06:47:03.590880","15.19206899","0.00112760","97.3451","233.0480","0.6239","359.5008","0","U","44804","999","19809","0.00024738000000","0.00005149","0.0000000000000","6886.373","94.786","516.003","500.473","PAYLOAD","LARGE","IND","2019-11-27","SRI",null,"3941422","234519753","0 CARTOSAT 3","1 44804U 19081A   23175.28268045  .00005149  00000-0  24738-3 0  9998","2 44804  97.3451 233.0480 0011276   0.6239 359.5008 15.19206899198095"
"2.0","GENERATED VIA SPACE-TRACK.ORG API","2023-06-24T22:16:14","18 SPCS","CARTOSAT 3","2019-081A","EARTH","TEME","UTC","SGP4","2023-06-24T16:16:08.362848","15.19212086","0.00112410","97.3451","233.4323","359.2001","0.9214","0","U","44804","999","19815","0.00025985000000","0.00005413","0.0000000000000","6886.358","94.786","515.964","500.482","PAYLOAD","LARGE","IND","2019-11-27","SRI",null,"3941694","234526617","0 CARTOSAT 3","1 44804U 19081A   23175.67787457  .00005413  00000-0  25985-3 0  9993","2 44804  97.3451 233.4323 0011241 359.2001   0.9214 15.19212086198155"
"2.0","GENERATED VIA SPACE-TRACK.ORG API","2023-06-25T06:26:13","18 SPCS","CARTOSAT 3","2019-081A","EARTH","TEME","UTC","SGP4","2023-06-25T03:20:03.809472","15.19218129","0.00111870","97.3451","233.8808","357.5815","2.5363","0","U","44804","999","19822","0.00027792000000","0.00005795","0.0000000000000","6886.339","94.786","515.908","500.501","PAYLOAD","LARGE","IND","2019-11-27","SRI",null,"3941970","234533693","0 CARTOSAT 3","1 44804U 19081A   23176.13893298  .00005795  00000-0  27792-3 0  9997","2 44804  97.3451 233.8808 0011187 357.5815   2.5363 15.19218129198225"
"2.0","GENERATED VIA SPACE-TRACK.ORG API","2023-06-25T14:16:12","18 SPCS","CARTOSAT 3","2019-081A","EARTH","TEME","UTC","SGP4","2023-06-25T09:39:26.844192","15.19221274","0.00111650","97.3451","234.1371","356.5525","3.5631","0","U","44804","999","19826","0.00028190000000","0.00005879","0.0000000000000","6886.330","94.785","515.883","500.506","PAYLOAD","LARGE","IND","2019-11-27","SRI",null,"3942288","234540805","0 CARTOSAT 3","1 44804U 19081A   23176.40239403  .00005879  00000-0  28190-3 0  9995","2 44804  97.3451 234.1371 0011165 356.5525   3.5631 15.19221274198265"
"2.0","GENERATED VIA SPACE-TRACK.ORG API","2023-06-25T22:16:12","18 SPCS","CARTOSAT 3","2019-081A","EARTH","TEME","UTC","SGP4","2023-06-25T15:58:49.867680","15.19223211","0.00111390","97.3452","234.3933","355.5505","4.5629","0","U","44804","999","19830","0.00025694000000","0.00005353","0.0000000000000","6886.324","94.785","515.860","500.518","PAYLOAD","LARGE","IND","2019-11-27","SRI",null,"3942553","234547477","0 CARTOSAT 3","1 44804U 19081A   23176.66585495  .00005353  00000-0  25694-3 0  9991","2 44804  97.3452 234.3933 0011139 355.5505   4.5629 15.19223211198306"
"2.0","GENERATED VIA SPACE-TRACK.ORG API","2023-06-26T06:16:12","18 SPCS","CARTOSAT 3","2019-081A","EARTH","TEME","UTC","SGP4","2023-06-26T03:02:45.027456","15.19228850","0.00110870","97.3452","234.8418","353.8803","6.2294","0","U","44804","999","19837","0.00026722000000","0.00005570","0.0000000000000","6886.307","94.785","515.807","500.537","PAYLOAD","LARGE","IND","2019-11-27","SRI",null,"3942832","234553780","0 CARTOSAT 3","1 44804U 19081A   23177.12691004  .00005570  00000-0  26722-3 0  9991","2 44804  97.3452 234.8418 0011087 353.8803   6.2294 15.19228850198371"
"2.0","GENERATED VIA SPACE-TRACK.ORG API","2023-06-26T14:16:12","18 SPCS","CARTOSAT 3","2019-081A","EARTH","TEME","UTC","SGP4","2023-06-26T09:22:07.904064","15.19231913","0.00110750","97.3452","235.0981","352.8621","7.2454","0","U","44804","999","19841","0.00027175000000","0.00005667","0.0000000000000","6886.298","94.785","515.789","500.536","PAYLOAD","LARGE","IND","2019-11-27","SRI",null,"3943144","234561552","0 CARTOSAT 3","1 44804U 19081A   23177.39036926  .00005667  00000-0  27175-3 0  9996","2 44804  97.3452 235.0981 0011075 352.8621   7.2454 15.19231913198411"
"2.0","GENERATED VIA SPACE-TRACK.ORG API","2023-06-26T22:16:13","18 SPCS","CARTOSAT 3","2019-081A","EARTH","TEME","UTC","SGP4","2023-06-26T15:41:30.760800","15.19234240","0.00110530","97.3453","235.3542","351.9033","8.2022","0","U","44804","999","19845","0.00025753000000","0.00005367","0.0000000000000","6886.291","94.785","515.767","500.544","PAYLOAD","LARGE","IND","2019-11-27","SRI",null,"3943443","234568792","0 CARTOSAT 3","1 44804U 19081A   23177.65382825  .00005367  00000-0  25753-3 0  9994","2 44804  97.3453 235.3542 0011053 351.9033   8.2022 15.19234240198453"
"2.0","GENERATED VIA SPACE-TRACK.ORG API","2023-06-27T06:16:12","18 SPCS","CARTOSAT 3","2019-081A","EARTH","TEME","UTC","SGP4","2023-06-27T02:45:25.635456","15.19238985","0.00109980","97.3454","235.8028","350.2303","9.8716","0","U","44804","999","19852","0.00024765000000","0.00005159","0.0000000000000","6886.276","94.784","515.715","500.568","PAYLOAD","LARGE","IND","2019-11-27","SRI",null,"3943716","234575153","0 CARTOSAT 3","1 44804U 19081A   23178.11488004  .00005159  00000-0  24765-3 0  9993","2 44804  97.3454 235.8028 0010998 350.2303   9.8716 15.19238985198522"
"2.0","GENERATED VIA SPACE-TRACK.ORG API","2023-06-27T14:16:12","18 SPCS","CARTOSAT 3","2019-081A","EARTH","TEME","UTC","SGP4","2023-06-27T10:39:39.039840","15.19242375","0.00109460","97.3455","236.1231","349.0604","11.0391","0","U","44804","999","19857","0.00024683000000","0.00005142","0.0000000000000","6886.266","94.784","515.669","500.593","PAYLOAD","LARGE","IND","2019-11-27","SRI",null,"3943971","234581108","0 CARTOSAT 3","1 44804U 19081A   23178.44420185  .00005142  00000-0  24683-3 0  9996","2 44804  97.3455 236.1231 0010946 349.0604  11.0391 15.19242375198573"
"2.0","GENERATED VIA SPACE-TRACK.ORG API","2023-06-27T22:26:12","18 SPCS","CARTOSAT 3","2019-081A","EARTH","TEME","UTC","SGP4","2023-06-27T18:33:52.358688","15.19245969","0.00109060","97.3456","236.4435","347.8573","12.2397","0","U","44804","999","19862","0.00024311000000","0.00005064","0.0000000000000","6886.255","94.784","515.630","500.610","PAYLOAD","LARGE","IND","2019-11-27","SRI",null,"3944298","234589849","0 CARTOSAT 3","1 44804U 19081A   23178.77352267  .00005064  00000-0  24311-3 0  9998","2 44804  97.3456 236.4435 0010906 347.8573  12.2397 15.19245969198627"
"2.0","GENERATED VIA SPACE-TRACK.ORG API","2023-06-28T06:16:12","18 SPCS","CARTOSAT 3","2019-081A","EARTH","TEME","UTC","SGP4","2023-06-28T04:02:56.272704","15.19249553","0.00108700","97.3456","236.8278","346.3904","13.7036","0","U","44804","999","19868","0.00022593000000","0.00004701","0.0000000000000","6886.244","94.784","515.595","500.624","PAYLOAD","LARGE","IND","2019-11-27","SRI",null,"3944573","234596154","0 CARTOSAT 3","1 44804U 19081A   23179.16870686  .00004701  00000-0  22593-3 0  9999","2 44804  97.3456 236.8278 0010870 346.3904  13.7036 15.19249553198683"
"2.0","GENERATED VIA SPACE-TRACK.ORG API","2023-06-28T14:16:12","18 SPCS","CARTOSAT 3","2019-081A","EARTH","TEME","UTC","SGP4","2023-06-28T08:47:28.200768","15.19251393","0.00108490","97.3456","237.0200","345.6396","14.4529","0","U","44804","999","19871","0.00022248000000","0.00004629","0.0000000000000","6886.239","94.784","515.575","500.633","PAYLOAD","LARGE","IND","2019-11-27","SRI",null,"3944826","234602646","0 CARTOSAT 3","1 44804U 19081A   23179.36629862  .00004629  00000-0  22248-3 0  9995","2 44804  97.3456 237.0200 0010849 345.6396  14.4529 15.19251393198718"
"2.0","GENERATED VIA SPACE-TRACK.ORG API","2023-06-28T22:16:13","18 SPCS","CARTOSAT 3","2019-081A","EARTH","TEME","UTC","SGP4","2023-06-28T16:41:41.361504","15.19254570","0.00108260","97.3457","237.3403","344.4082","15.6818","0","U","44804","999","19876","0.00021474000000","0.00004466","0.0000000000000","6886.229","94.783","515.549","500.639","PAYLOAD","LARGE","IND","2019-11-27","SRI",null,"3945058","234607950","0 CARTOSAT 3","1 44804U 19081A   23179.69561761  .00004466  00000-0  21474-3 0  9993","2 44804  97.3457 237.3403 0010826 344.4082  15.6818 15.19254570198760"
